[{"OBJECT_NAME":"ALTAIR (RS65S)","OBJECT_ID":"2024-199AW","EPOCH":"2026-03-09T21:31:54.569568","MEAN_MOTION":15.34998047,"ECCENTRICITY":0.00120363,"INCLINATION":97.3179,"RA_OF_ASC_NODE":298.9542,"ARG_OF_PERICENTER":307.5319,"MEAN_ANOMALY":52.483,"EPHEMERIS_TYPE":0,"CLASSIFICATION_TYPE":"U","NORAD_CAT_ID":61779,"ELEMENT_SET_NO":999,"REV_AT_EPOCH":12187,"BSTAR":0.00027541775,"MEAN_MOTION_DOT":9.293e-5,"MEAN_MOTION_DDOT":0},{"OBJECT_NAME":"STARLINK-35364","OBJECT_ID":"2025-221T","EPOCH":"2026-03-09T13:36:26.824032","MEAN_MOTION":15.30160346,"ECCENTRICITY":0.0001812,"INCLINATION":53.1605,"RA_OF_ASC_NODE":88.979,"ARG_OF_PERICENTER":90.1398,"MEAN_ANOMALY":269.981,"EPHEMERIS_TYPE":0,"CLASSIFICATION_TYPE":"U","NORAD_CAT_ID":65840,"ELEMENT_SET_NO":999,"REV_AT_EPOCH":2471,"BSTAR":0.001189,"MEAN_MOTION_DOT":0.00034978,"MEAN_MOTION_DDOT":0}]
